ONEWEB-0249             
1 48967U 21060A   26014.08225977 -.00000023  00000+0 -93300-4 0  9991
2 48967  87.9032 259.4614 0001385  75.3035 284.8249 13.16594814219333
ONEWEB-0250             
1 48968U 21060B   26014.12633307  .00000079  00000+0  15026-3 0  9994
2 48968  87.9026 257.7121 0001074 121.9019 238.2222 13.25823055219804
ONEWEB-0252             
1 48970U 21060D   26014.11391650  .00000090  00000+0  20245-3 0  9990
2 48970  87.9028 259.4487 0001628  70.9129 289.2178 13.16593278219383
ONEWEB-0253             
1 48971U 21060E   26014.10284584  .00000047  00000+0  89073-4 0  9994
2 48971  87.9030 259.4558 0001402  72.7860 287.3425 13.16594734219313
ONEWEB-0254             
1 48972U 21060F   26014.11233104  .00000095  00000+0  21408-3 0  9998
2 48972  87.9033 259.4469 0001132  72.6226 287.5029 13.16595797219315
ONEWEB-0255             
1 48973U 21060G   26014.07434713  .00000037  00000+0  62445-4 0  9996
2 48973  87.9030 259.4672 0001262  72.5297 287.5972 13.16595113219386
ONEWEB-0256             
1 48974U 21060H   26014.10045996  .00000024  00000+0  29741-4 0  9990
2 48974  87.9021 259.4691 0001654  78.0313 282.1003 13.16592871219354
ONEWEB-0257             
1 48975U 21060J   26014.13292156  .00000080  00000+0  17637-3 0  9998
2 48975  87.9033 259.4443 0001398  71.1330 288.9953 13.16594783219319
